ONEWEB-0717             
1 55178U 23004AQ  26166.58549720  .00000074  00000+0  15641-3 0  9996
2 55178  87.9142   6.1746 0002437  90.1236 270.0175 13.17648949167424
ONEWEB-0719             
1 55179U 23004AR  26166.59562714  .00000066  00000+0  13719-3 0  9991
2 55179  87.9141   6.1530 0001772  82.4978 277.6355 13.17648978167372
APSTAR-6E               
1 55239U 23005A   26166.62896584 -.00000316  00000+0  00000+0 0  9992
2 55239   0.0372 251.9475 0001129 311.6642  60.7414  1.00267673 18673
YAOGAN-37               
1 55244U 23006C   26166.37199028  .00003667  00000+0  19275-3 0  9999
2 55244  43.1952 132.7316 0016928 356.5086   3.5644 15.17149942189607
LINUSS1                 
1 55246U 22144G   26166.36335486  .00000052  00000+0  00000+0 0  9999
2 55246   5.3767  64.1987 0010542 307.3881 271.3607  0.99051295 11647
LINUSS2                 
1 55247U 22144H   26166.34662684  .00000069  00000+0  00000+0 0  9999
2 55247   5.3763  64.1918 0008133 313.4604 248.9287  0.99048123 11697
USA 342                 
1 55263U 23008A   26163.62596264  .00000000  00000+0  00000+0 0  9990
2 55263   0.0059 338.0459 0000206 258.5222 273.5711  1.00272733 12478
LDPE-3A                 
1 55264U 23008B   26166.52390012  .00000025  00000+0  00000+0 0  9993
2 55264   2.3437  81.6831 0001081  65.7612 202.6821  0.99144658 11792
NAVSTAR 82 (USA 343)    
1 55268U 23009A   26163.12704838  .00000093  00000+0  00000+0 0  9991
2 55268  55.1221 148.7180 0006256 318.1997 154.6775  2.00571745 25148
STARLINK-5277           
1 55269U 23010A   26166.35795246  .00000016  00000+0  91661-5 0  9999
2 55269  69.9994 158.2799 0004082 265.9285  94.1408 14.98329038187691
STARLINK-5306           
1 55271U 23010C   26166.29536921  .00000250  00000+0  28789-4 0  9998
2 55271  69.9993 158.4625 0003454 268.1978  91.8786 14.98327324187407
STARLINK-5310           
1 55272U 23010D   26166.41220950  .00001371  00000+0  12273-3 0  9990
2 55272  69.9992 158.0713 0003675 268.1142  91.9596 14.98317964187420
STARLINK-5291           
1 55273U 23010E   26166.38714607  .00000335  00000+0  35837-4 0  9995
2 55273  69.9989 157.9849 0003697 265.7100  94.3636 14.98329724187425
STARLINK-5236           
1 55274U 23010F   26166.34938286 -.00000129  00000+0 -29983-5 0  9992
2 55274  69.9991 138.3836 0003600 266.6847  93.3900 14.98330530187903
STARLINK-5260           
1 55275U 23010G   26166.34122156  .00003320  00000+0  28587-3 0  9995
2 55275  70.0005 138.3554 0002994 265.8202  94.2615 14.98334957187901
STARLINK-5261           
1 55276U 23010H   26166.34103345  .00000142  00000+0  19743-4 0  9999
2 55276  69.9991 138.3537 0003812 266.2480  93.8243 14.98330896187895
STARLINK-5299           
1 55277U 23010J   26166.34960262  .00000169  00000+0  22007-4 0  9995
2 55277  69.9994 158.2504 0003918 267.2322  92.8388 14.98331965187412
STARLINK-5289           
1 55278U 23010K   26166.39966519  .00000454  00000+0  45853-4 0  9993
2 55278  69.9989 158.0234 0003977 265.5121  94.5584 14.98331326187416
STARLINK-5331           
1 55280U 23010M   26166.37047781  .00000496  00000+0  49372-4 0  9991
2 55280  69.9991 158.3137 0003846 266.7442  93.3277 14.98326984187400
STARLINK-5298           
1 55281U 23010N   26166.40801380  .00000402  00000+0  41475-4 0  9992
2 55281  69.9990 158.0523 0003698 267.3022  92.7714 14.98332231187414
STARLINK-5330           
1 55282U 23010P   26166.00004630  .00005403  00000+0  46010-3 0  9997
2 55282  69.9994 158.9284 0004135 263.2970 190.8500 14.98339398  5789
STARLINK-5317           
1 55283U 23010Q   26166.40384496  .00000262  00000+0  29786-4 0  9993
2 55283  69.9990 158.0381 0003319 264.3201  95.7579 14.98342363187413
STARLINK-5337           
1 55284U 23010R   26166.38297056  .00000062  00000+0  13007-4 0  9993
2 55284  69.9987 157.9622 0004178 264.2352  95.8331 14.98329700187402
STARLINK-5332           
1 55285U 23010S   26166.29088693  .00000131  00000+0  18753-4 0  9999
2 55285  69.9993 118.2900 0002736 269.8214  90.2632 14.98329943189263
STARLINK-5338           
1 55286U 23010T   26166.33268729 -.00000221  00000+0 -10689-4 0  9997
2 55286  69.9991 138.3243 0003726 265.8518  94.2215 14.98329775187899
STARLINK-5341           
1 55287U 23010U   26166.27404780 -.00000493  00000+0 -33492-4 0  9998
2 55287  69.9996 118.5577 0003809 261.4004  98.6724 14.98334046188373
STARLINK-5311           
1 55288U 23010V   26166.32033546  .00001101  00000+0  10002-3 0  9999
2 55288  69.9990 138.2779 0003786 262.4710  97.6019 14.98339604187897
STARLINK-5320           
1 55289U 23010W   26166.33686221 -.00000428  00000+0 -28047-4 0  9997
2 55289  69.9990 138.3381 0003523 265.6667  94.4090 14.98328457187891
STARLINK-5266           
1 55290U 23010X   26166.32851320 -.00000200  00000+0 -89482-5 0  9991
2 55290  69.9990 138.3079 0003896 262.0513  98.0204 14.98328493187898
STARLINK-5327           
1 55291U 23010Y   26166.34520880 -.00000137  00000+0 -36899-5 0  9991
2 55291  69.9992 138.3656 0003646 264.9018  95.1725 14.98330388187898
