OBJECT_NAME,OBJECT_ID,EPOCH,MEAN_MOTION,ECCENTRICITY,INCLINATION,RA_OF_ASC_NODE,ARG_OF_PERICENTER,MEAN_ANOMALY,EPHEMERIS_TYPE,CLASSIFICATION_TYPE,NORAD_CAT_ID,ELEMENT_SET_NO,REV_AT_EPOCH,BSTAR,MEAN_MOTION_DOT,MEAN_MOTION_DDOT
ONEWEB-0717,2023-004AQ,2026-06-15T14:03:06.958080,13.17648949,.00024372,87.9142,6.1746,90.1236,270.0175,0,U,55178,999,16742,.15640644E-3,.74E-6,0
ONEWEB-0719,2023-004AR,2026-06-15T14:17:42.184896,13.17648978,.00017729,87.9141,6.1530,82.4978,277.6355,0,U,55179,999,16737,.13718818E-3,.66E-6,0
APSTAR-6E,2023-005A,2026-06-15T15:05:42.648576,1.00267673,.00011297,0.0372,251.9475,311.6642,60.7414,0,U,55239,999,1867,0,-.316E-5,0
YAOGAN-37,2023-006C,2026-06-15T08:55:39.960192,15.17149942,.00169281,43.1952,132.7316,356.5086,3.5644,0,U,55244,999,18960,.19274985E-3,.3667E-4,0
LINUSS1,2022-144G,2026-06-15T08:43:13.859904,0.99051295,.00105425,5.3767,64.1987,307.3881,271.3607,0,U,55246,999,1164,0,.52E-6,0
LINUSS2,2022-144H,2026-06-15T08:19:08.558976,0.99048123,.0008133,5.3763,64.1918,313.4604,248.9287,0,U,55247,999,1169,0,.69E-6,0
USA 342,2023-008A,2026-06-12T15:01:23.172096,1.00272733,.0000206,0.0059,338.0459,258.5222,273.5711,0,U,55263,999,1247,0,0,0
LDPE-3A,2023-008B,2026-06-15T12:34:24.970368,0.99144658,.0001081,2.3437,81.6831,65.7612,202.6821,0,U,55264,999,1179,0,.25E-6,0
NAVSTAR 82 (USA 343),2023-009A,2026-06-12T03:02:56.980032,2.00571745,.0006256,55.1221,148.7180,318.1997,154.6775,0,U,55268,999,2514,0,.93E-6,0
STARLINK-5277,2023-010A,2026-06-15T08:35:27.092544,14.98329038,.00040826,69.9994,158.2799,265.9285,94.1408,0,U,55269,999,18769,.9166131E-5,.16E-6,0
STARLINK-5306,2023-010C,2026-06-15T07:05:19.899744,14.98327324,.00034548,69.9993,158.4625,268.1978,91.8786,0,U,55271,999,18740,.28788762E-4,.25E-5,0
STARLINK-5310,2023-010D,2026-06-15T09:53:34.900800,14.98317964,.00036752,69.9992,158.0713,268.1142,91.9596,0,U,55272,999,18742,.12273487E-3,.1371E-4,0
STARLINK-5291,2023-010E,2026-06-15T09:17:29.420448,14.98329724,.00036978,69.9989,157.9849,265.7100,94.3636,0,U,55273,999,18742,.35837474E-4,.335E-5,0
STARLINK-5236,2023-010F,2026-06-15T08:23:06.679104,14.98330530,.00036007,69.9991,138.3836,266.6847,93.3900,0,U,55274,999,18790,-.2998295E-5,-.129E-5,0
STARLINK-5260,2023-010G,2026-06-15T08:11:21.542784,14.98334957,.00029946,70.0005,138.3554,265.8202,94.2615,0,U,55275,999,18790,.28587168E-3,.332E-4,0
STARLINK-5261,2023-010H,2026-06-15T08:11:05.290080,14.98330896,.00038129,69.9991,138.3537,266.2480,93.8243,0,U,55276,999,18789,.19742632E-4,.142E-5,0
STARLINK-5299,2023-010J,2026-06-15T08:23:25.666368,14.98331965,.00039182,69.9994,158.2504,267.2322,92.8388,0,U,55277,999,18741,.22007388E-4,.169E-5,0
STARLINK-5289,2023-010K,2026-06-15T09:35:31.072416,14.98331326,.00039774,69.9989,158.0234,265.5121,94.5584,0,U,55278,999,18741,.4585294E-4,.454E-5,0
STARLINK-5331,2023-010M,2026-06-15T08:53:29.282784,14.98326984,.00038462,69.9991,158.3137,266.7442,93.3277,0,U,55280,999,18740,.49372451E-4,.496E-5,0
STARLINK-5298,2023-010N,2026-06-15T09:47:32.392320,14.98332231,.00036983,69.9990,158.0523,267.3022,92.7714,0,U,55281,999,18741,.41475197E-4,.402E-5,0
STARLINK-5330,2023-010P,2026-06-15T00:00:04.000320,14.98339398,.00041359,69.9994,158.9284,263.2970,190.8500,0,U,55282,999,578,.46010326E-3,.5403E-4,0
STARLINK-5317,2023-010Q,2026-06-15T09:41:32.204544,14.98342363,.00033192,69.9990,158.0381,264.3201,95.7579,0,U,55283,999,18741,.2978645E-4,.262E-5,0
STARLINK-5337,2023-010R,2026-06-15T09:11:28.656384,14.98329700,.00041782,69.9987,157.9622,264.2352,95.8331,0,U,55284,999,18740,.13007339E-4,.62E-6,0
STARLINK-5332,2023-010S,2026-06-15T06:58:52.630752,14.98329943,.0002736,69.9993,118.2900,269.8214,90.2632,0,U,55285,999,18926,.18753E-4,.131E-5,0
STARLINK-5338,2023-010T,2026-06-15T07:59:04.181856,14.98329775,.00037264,69.9991,138.3243,265.8518,94.2215,0,U,55286,999,18789,-.10688774E-4,-.221E-5,0
STARLINK-5341,2023-010U,2026-06-15T06:34:37.729920,14.98334046,.0003809,69.9996,118.5577,261.4004,98.6724,0,U,55287,999,18837,-.33492E-4,-.493E-5,0
STARLINK-5311,2023-010V,2026-06-15T07:41:16.983744,14.98339604,.00037863,69.9990,138.2779,262.4710,97.6019,0,U,55288,999,18789,.10002021E-3,.1101E-4,0
STARLINK-5320,2023-010W,2026-06-15T08:05:04.894944,14.98328457,.00035237,69.9990,138.3381,265.6667,94.4090,0,U,55289,999,18789,-.28046533E-4,-.428E-5,0
STARLINK-5266,2023-010X,2026-06-15T07:53:03.540480,14.98328493,.0003896,69.9990,138.3079,262.0513,98.0204,0,U,55290,999,18789,-.894817E-5,-.2E-5,0
STARLINK-5327,2023-010Y,2026-06-15T08:17:06.040320,14.98330388,.00036467,69.9992,138.3656,264.9018,95.1725,0,U,55291,999,18789,-.3689907E-5,-.137E-5,0
